start=new Date('2023-02-02T00:00:00.000Z').valueOf();
sats=[{"GP_ID":"224193688","OBJECT_ID":"2020-006AW","RA_OF_ASC_NODE":"290.7444","TLE_LINE2":"2 45088  53.0546 290.7444 0001181  89.6611 270.4514 15.06409712166328","EPHEMERIS_TYPE":"0","SITE":"AFETR","SEMIMAJOR_AXIS":"6925.319","BSTAR":"0.00018294000000","REF_FRAME":"TEME","MEAN_MOTION_DDOT":"0.0000000000000","INCLINATION":"53.0546","REV_AT_EPOCH":"16632","MEAN_ELEMENT_THEORY":"SGP4","ELEMENT_SET_NO":"999","CLASSIFICATION_TYPE":"U","DECAY_DATE":null,"PERIAPSIS":"546.366","ARG_OF_PERICENTER":"89.6611","MEAN_MOTION_DOT":"0.00002445","CENTER_NAME":"EARTH","FILE":"3767525","LAUNCH_DATE":"2020-01-29","NORAD_CAT_ID":"45088","MEAN_ANOMALY":"270.4514","TIME_SYSTEM":"UTC","ECCENTRICITY":"0.00011810","OBJECT_NAME":"STARLINK-1183","PERIOD":"95.592","MEAN_MOTION":"15.06409712","RCS_SIZE":"LARGE","OBJECT_TYPE":"PAYLOAD","APOAPSIS":"548.002","TLE_LINE1":"1 45088U 20006AW  23032.15771491  .00002445  00000-0  18294-3 0  9990","COUNTRY_CODE":"US","EPOCH":"2023-02-01T03:47:06.568224"},{"REV_AT_EPOCH":"16633","MEAN_ELEMENT_THEORY":"SGP4","INCLINATION":"53.0530","ELEMENT_SET_NO":"999","CLASSIFICATION_TYPE":"U","PERIAPSIS":"546.394","DECAY_DATE":null,"ARG_OF_PERICENTER":"93.1189","MEAN_MOTION_DOT":"0.00001185","CENTER_NAME":"EARTH","FILE":"3767525","LAUNCH_DATE":"2020-01-29","GP_ID":"224193937","OBJECT_ID":"2020-006AX","RA_OF_ASC_NODE":"290.8108","TLE_LINE2":"2 45089  53.0530 290.8108 0001179  93.1189 266.9935 15.06401150166333","EPHEMERIS_TYPE":"0","SITE":"AFETR","SEMIMAJOR_AXIS":"6925.345","REF_FRAME":"TEME","BSTAR":"0.00009843900000","MEAN_MOTION_DDOT":"0.0000000000000","RCS_SIZE":"LARGE","OBJECT_TYPE":"PAYLOAD","APOAPSIS":"548.027","TLE_LINE1":"1 45089U 20006AX  23032.16510223  .00001185  00000-0  98439-4 0  9996","COUNTRY_CODE":"US","EPOCH":"2023-02-01T03:57:44.832672","NORAD_CAT_ID":"45089","MEAN_ANOMALY":"266.9935","ECCENTRICITY":"0.00011790","TIME_SYSTEM":"UTC","OBJECT_NAME":"STARLINK-1136","PERIOD":"95.592","MEAN_MOTION":"15.06401150"},{"TLE_LINE1":"1 45090U 20006AY  23032.07568129  .00000773  00000-0  70761-4 0  9996","COUNTRY_CODE":"US","EPOCH":"2023-02-01T01:48:58.863456","RCS_SIZE":"LARGE","APOAPSIS":"548.254","OBJECT_TYPE":"PAYLOAD","OBJECT_NAME":"STARLINK-1176","PERIOD":"95.592","MEAN_MOTION":"15.06407816","NORAD_CAT_ID":"45090","MEAN_ANOMALY":"258.9454","ECCENTRICITY":"0.00015370","TIME_SYSTEM":"UTC","PERIAPSIS":"546.125","DECAY_DATE":null,"ARG_OF_PERICENTER":"101.1708","MEAN_MOTION_DOT":"0.00000773","LAUNCH_DATE":"2020-01-29","FILE":"3767525","CENTER_NAME":"EARTH","INCLINATION":"53.0521","REV_AT_EPOCH":"16631","MEAN_ELEMENT_THEORY":"SGP4","ELEMENT_SET_NO":"999","CLASSIFICATION_TYPE":"U","EPHEMERIS_TYPE":"0","SITE":"AFETR","SEMIMAJOR_AXIS":"6925.325","BSTAR":"0.00007076100000","REF_FRAME":"TEME","MEAN_MOTION_DDOT":"0.0000000000000","GP_ID":"224194689","RA_OF_ASC_NODE":"291.1156","OBJECT_ID":"2020-006AY","TLE_LINE2":"2 45090  53.0521 291.1156 0001537 101.1708 258.9454 15.06407816166317"},{"COUNTRY_CODE":"US","EPOCH":"2023-02-01T12:21:58.204800","TLE_LINE1":"1 45092U 20006BA  23032.51525700  .00001189  00000-0  98714-4 0  9995","RCS_SIZE":"LARGE","APOAPSIS":"548.132","OBJECT_TYPE":"PAYLOAD","PERIOD":"95.592","MEAN_MOTION":"15.06400162","OBJECT_NAME":"STARLINK-1137","ECCENTRICITY":"0.00013270","TIME_SYSTEM":"UTC","NORAD_CAT_ID":"45092","MEAN_ANOMALY":"274.2414","MEAN_MOTION_DOT":"0.00001189","LAUNCH_DATE":"2020-01-29","FILE":"3767525","CENTER_NAME":"EARTH","PERIAPSIS":"546.294","DECAY_DATE":null,"ARG_OF_PERICENTER":"85.8726","CLASSIFICATION_TYPE":"U","ELEMENT_SET_NO":"999","REV_AT_EPOCH":"16637","INCLINATION":"53.0518","MEAN_ELEMENT_THEORY":"SGP4","SEMIMAJOR_AXIS":"6925.348","BSTAR":"0.00009871400000","REF_FRAME":"TEME","MEAN_MOTION_DDOT":"0.0000000000000","EPHEMERIS_TYPE":"0","SITE":"AFETR","OBJECT_ID":"2020-006BA","RA_OF_ASC_NODE":"289.1515","TLE_LINE2":"2 45092  53.0518 289.1515 0001327  85.8726 274.2414 15.06400162166376","GP_ID":"224194440"},{"CLASSIFICATION_TYPE":"U","ELEMENT_SET_NO":"999","INCLINATION":"53.0545","REV_AT_EPOCH":"16631","MEAN_ELEMENT_THEORY":"SGP4","CENTER_NAME":"EARTH","FILE":"3767525","LAUNCH_DATE":"2020-01-29","MEAN_MOTION_DOT":"0.00001725","ARG_OF_PERICENTER":"88.5577","DECAY_DATE":null,"PERIAPSIS":"546.314","TLE_LINE2":"2 45093  53.0545 290.9529 0001286  88.5577 271.5559 15.06402994166319","RA_OF_ASC_NODE":"290.9529","OBJECT_ID":"2020-006BB","GP_ID":"224193189","MEAN_MOTION_DDOT":"0.0000000000000","SEMIMAJOR_AXIS":"6925.339","REF_FRAME":"TEME","BSTAR":"0.00013468000000","EPHEMERIS_TYPE":"0","SITE":"AFETR","OBJECT_TYPE":"PAYLOAD","APOAPSIS":"548.095","RCS_SIZE":"LARGE","COUNTRY_CODE":"US","EPOCH":"2023-02-01T02:43:25.384800","TLE_LINE1":"1 45093U 20006BB  23032.11348825  .00001725  00000-0  13468-3 0  9991","TIME_SYSTEM":"UTC","ECCENTRICITY":"0.00012860","MEAN_ANOMALY":"271.5559","NORAD_CAT_ID":"45093","MEAN_MOTION":"15.06402994","PERIOD":"95.592","OBJECT_NAME":"STARLINK-1142"},{"PERIOD":"95.592","MEAN_MOTION":"15.06399533","OBJECT_NAME":"STARLINK-1146","ECCENTRICITY":"0.00012800","TIME_SYSTEM":"UTC","NORAD_CAT_ID":"45094","MEAN_ANOMALY":"264.2299","COUNTRY_CODE":"US","EPOCH":"2023-02-01T12:36:31.598208","TLE_LINE1":"1 45094U 20006BC  23032.52536572  .00000133  00000-0  27795-4 0  9996","RCS_SIZE":"LARGE","OBJECT_TYPE":"PAYLOAD","APOAPSIS":"548.101","SEMIMAJOR_AXIS":"6925.350","REF_FRAME":"TEME","BSTAR":"0.00002779500000","MEAN_MOTION_DDOT":"0.0000000000000","SITE":"AFETR","EPHEMERIS_TYPE":"0","RA_OF_ASC_NODE":"289.0954","OBJECT_ID":"2020-006BC","TLE_LINE2":"2 45094  53.0517 289.0954 0001280  95.8836 264.2299 15.06399533166384","GP_ID":"224193439","MEAN_MOTION_DOT":"0.00000133","CENTER_NAME":"EARTH","FILE":"3767525","LAUNCH_DATE":"2020-01-29","PERIAPSIS":"546.329","DECAY_DATE":null,"ARG_OF_PERICENTER":"95.8836","ELEMENT_SET_NO":"999","CLASSIFICATION_TYPE":"U","REV_AT_EPOCH":"16638","INCLINATION":"53.0517","MEAN_ELEMENT_THEORY":"SGP4"},{"PERIAPSIS":"546.285","DECAY_DATE":null,"ARG_OF_PERICENTER":"94.0452","MEAN_MOTION_DOT":"0.00003901","FILE":"3767525","CENTER_NAME":"EARTH","LAUNCH_DATE":"2020-01-29","REV_AT_EPOCH":"16632","MEAN_ELEMENT_THEORY":"SGP4","INCLINATION":"53.0531","CLASSIFICATION_TYPE":"U","ELEMENT_SET_NO":"999","SITE":"AFETR","EPHEMERIS_TYPE":"0","SEMIMAJOR_AXIS":"6925.314","BSTAR":"0.00028056000000","REF_FRAME":"TEME","MEAN_MOTION_DDOT":"0.0000000000000","GP_ID":"224194190","RA_OF_ASC_NODE":"290.8659","OBJECT_ID":"2020-006BD","TLE_LINE2":"2 45095  53.0531 290.8659 0001291  94.0452 266.0684 15.06411194166320","TLE_LINE1":"1 45095U 20006BD  23032.13096848  .00003901  00000-0  28056-3 0  9997","COUNTRY_CODE":"US","EPOCH":"2023-02-01T03:08:35.676672","RCS_SIZE":"LARGE","APOAPSIS":"548.073","OBJECT_TYPE":"PAYLOAD","OBJECT_NAME":"STARLINK-1147","MEAN_MOTION":"15.06411194","PERIOD":"95.591","NORAD_CAT_ID":"45095","MEAN_ANOMALY":"266.0684","TIME_SYSTEM":"UTC","ECCENTRICITY":"0.00012910"},{"TLE_LINE2":"2 45096  53.0532 290.9024 0001400  93.5447 266.5702 15.06404056166313","RA_OF_ASC_NODE":"290.9024","OBJECT_ID":"2020-006BE","GP_ID":"224194940","MEAN_MOTION_DDOT":"0.0000000000000","SEMIMAJOR_AXIS":"6925.336","BSTAR":"0.00018317000000","REF_FRAME":"TEME","SITE":"AFETR","EPHEMERIS_TYPE":"0","ELEMENT_SET_NO":"999","CLASSIFICATION_TYPE":"U","MEAN_ELEMENT_THEORY":"SGP4","REV_AT_EPOCH":"16631","INCLINATION":"53.0532","CENTER_NAME":"EARTH","FILE":"3767525","LAUNCH_DATE":"2020-01-29","MEAN_MOTION_DOT":"0.00002448","ARG_OF_PERICENTER":"93.5447","PERIAPSIS":"546.232","DECAY_DATE":null,"ECCENTRICITY":"0.00014000","TIME_SYSTEM":"UTC","MEAN_ANOMALY":"266.5702","NORAD_CAT_ID":"45096","PERIOD":"95.592","MEAN_MOTION":"15.06404056","OBJECT_NAME":"STARLINK-1152","OBJECT_TYPE":"PAYLOAD","APOAPSIS":"548.171","RCS_SIZE":"LARGE","COUNTRY_CODE":"US","EPOCH":"2023-02-01T02:59:20.807232","TLE_LINE1":"1 45096U 20006BE  23032.12454638  .00002448  00000-0  18317-3 0  9996"},{"NORAD_CAT_ID":"45098","MEAN_ANOMALY":"267.0327","ECCENTRICITY":"0.00014400","TIME_SYSTEM":"UTC","OBJECT_NAME":"STARLINK-1184","MEAN_MOTION":"15.06398372","PERIOD":"95.592","RCS_SIZE":"LARGE","OBJECT_TYPE":"PAYLOAD","APOAPSIS":"548.216","TLE_LINE1":"1 45098U 20006BG  23032.50420016  .00000652  00000-0  62650-4 0  9998","EPOCH":"2023-02-01T12:06:02.893824","COUNTRY_CODE":"US","GP_ID":"224193689","OBJECT_ID":"2020-006BG","RA_OF_ASC_NODE":"289.1997","TLE_LINE2":"2 45098  53.0517 289.1997 0001440  93.0827 267.0327 15.06398372166376","EPHEMERIS_TYPE":"0","SITE":"AFETR","REF_FRAME":"TEME","BSTAR":"0.00006265000000","SEMIMAJOR_AXIS":"6925.354","MEAN_MOTION_DDOT":"0.0000000000000","INCLINATION":"53.0517","REV_AT_EPOCH":"16637","MEAN_ELEMENT_THEORY":"SGP4","CLASSIFICATION_TYPE":"U","ELEMENT_SET_NO":"999","PERIAPSIS":"546.221","DECAY_DATE":null,"ARG_OF_PERICENTER":"93.0827","MEAN_MOTION_DOT":"0.00000652","LAUNCH_DATE":"2020-01-29","FILE":"3767525","CENTER_NAME":"EARTH"},{"OBJECT_TYPE":"PAYLOAD","APOAPSIS":"548.029","RCS_SIZE":"LARGE","COUNTRY_CODE":"US","EPOCH":"2023-02-01T01:45:02.036736","TLE_LINE1":"1 45099U 20006BH  23032.07294024  .00002799  00000-0  20670-3 0  9998","TIME_SYSTEM":"UTC","ECCENTRICITY":"0.00012130","MEAN_ANOMALY":"265.1093","NORAD_CAT_ID":"45099","PERIOD":"95.592","MEAN_MOTION":"15.06408121","OBJECT_NAME":"STARLINK-1186","CLASSIFICATION_TYPE":"U","ELEMENT_SET_NO":"999","REV_AT_EPOCH":"16631","INCLINATION":"53.0532","MEAN_ELEMENT_THEORY":"SGP4","CENTER_NAME":"EARTH","FILE":"3767525","LAUNCH_DATE":"2020-01-29","MEAN_MOTION_DOT":"0.00002799","ARG_OF_PERICENTER":"95.0035","DECAY_DATE":null,"PERIAPSIS":"546.349","TLE_LINE2":"2 45099  53.0532 291.1348 0001213  95.0035 265.1093 15.06408121166315","RA_OF_ASC_NODE":"291.1348","OBJECT_ID":"2020-006BH","GP_ID":"224193938","MEAN_MOTION_DDOT":"0.0000000000000","SEMIMAJOR_AXIS":"6925.324","REF_FRAME":"TEME","BSTAR":"0.00020670000000","EPHEMERIS_TYPE":"0","SITE":"AFETR"}];
